SKYKRAFT-1A             
1 55054U 23001AX  26068.71064616  .00008177  00000+0  30069-3 0  9991
2 55054  97.3349 127.6290 0011277 121.5092 238.7251 15.28083228176529
STARLINK-31768          
1 59616U 24080R   26068.31126227 -.00000274  00000+0 -41970-6 0  9998
2 59616  43.0050  40.1412 0001115 276.1558  83.9167 15.27578545104474
